{"type":"FeatureCollection","features":[{"type":"Feature","id":"way/113030476","properties":{"addr:city":"Richmond City","addr:housenumber":"1520","addr:postcode":"23219","addr:state":"VA","addr:street":"East Main Street","building":"train_station","building:levels":"5","fixme":"Redo entire station in accordance with https://wiki.openstreetmap.org/w/images/thumb/8/83/A-simple-station.svg/1000px-A-simple-station.svg.png","internet_access":"wlan","name":"Main Street Station","source":"esri_USDOT_Virgina","website":"http://www.richmondgov.com/MainStreetStation/index.aspx","wikidata":"Q11343430","id":"way/113030476","maki_temaki":"maki/rail"},"geometry":{"type":"Point","coordinates":[-77.4288135,37.5349326]}},{"type":"Feature","id":"way/146689449","properties":{"addr:city":"Richmond","addr:housenumber":"200","addr:postcode":"23220","addr:street":"North Boulevard","alt_name":"VMFA","building":"yes","building:levels":"3","building:levels:underground":"2","email":"info@vmfa.museum","fee":"no","internet_access":"wlan","internet_access:fee":"no","internet_access:ssid":"VMFA Guest","name":"Virginia Museum of Fine Arts","opening_hours":"Sa-We 10:00-17:00; Th-Fr 10:00-21:00","operator":"Commonwealth of Virginia","phone":"+1-804-340-1400","smoking":"no","tourism":"museum","website":"https://vmfa.museum/","wheelchair":"yes","wikidata":"Q4013975","wikipedia":"en:Virginia Museum of Fine Arts","id":"way/146689449","maki_temaki":"maki/museum"},"geometry":{"type":"Point","coordinates":[-77.4749164,37.5560452]}},{"type":"Feature","id":"way/252997396","properties":{"addr:city":"Richmond City","addr:housenumber":"2500","addr:postcode":"23220","addr:state":"VA","addr:street":"West Broad Street","building":"yes","description":"Kid-focused, hands-on exhibits about animals, the human body, the cosmos and the environment.","name":"Science Museum of Virginia","opening_hours":"Mo-Sa 09:30-17:00; Su 11:30-17:00","phone":"+1-804-864-1400","source":"esri_USDOT_Virgina","tourism":"museum","website":"https://smv.org/","wikidata":"Q7433575","wikipedia":"en:Science Museum of Virginia","id":"way/252997396","maki_temaki":"maki/museum"},"geometry":{"type":"Point","coordinates":[-77.4655058,37.5618629]}},{"type":"Feature","id":"way/46040754","properties":{"addr:city":"Richmond","addr:housenumber":"600","addr:postcode":"23222","addr:state":"VA","addr:street":"East Laburnum Avenue","leisure":"stadium","name":"Richmond International Raceway","phone":"+1 866-455-7223","website":"http://www.rir.com/","wikidata":"Q1700358","id":"way/46040754","maki_temaki":"temaki/racetrack_oval"},"geometry":{"type":"Point","coordinates":[-77.4193273,37.5923288]}},{"type":"Feature","id":"relation/6243498","properties":{"leisure":"nature_reserve","name":"Belle Isle","natural":"wood","not:operator:wikidata":"Q43421","operator":"City of Richmond","operator:type":"public","type":"multipolygon","wikidata":"Q4883643","wikipedia":"en:Belle Isle (Richmond, Virginia)","id":"relation/6243498","maki_temaki":"maki/park"},"geometry":{"type":"Point","coordinates":[-77.4527471,37.5292039]}},{"type":"Feature","id":"way/665455262","properties":{"addr:city":"Richmond","addr:housenumber":"3201","addr:postcode":"23221","addr:state":"VA","addr:street":"Maplewood Avenue","capacity":"22611","leisure":"stadium","name":"City Stadium","sport":"soccer","wikidata":"Q5123443","wikipedia":"en:City Stadium (Richmond)","id":"way/665455262","maki_temaki":"maki/stadium"},"geometry":{"type":"Point","coordinates":[-77.4864896,37.5496354]}},{"type":"Feature","id":"way/38173754","properties":{"leisure":"pitch","name":"The Diamond","sport":"baseball","wikidata":"Q7730070","id":"way/38173754","maki_temaki":"maki/stadium"},"geometry":{"type":"Point","coordinates":[-77.4632829,37.5716937]}},{"type":"Feature","id":"way/45088494","properties":{"addr:city":"Richmond City","addr:housenumber":"1000","addr:postcode":"23219","addr:state":"VA","addr:street":"Bank Street","building":"yes","building:levels":"2","ele":"46","gnis:feature_id":"1479670","government":"administrative","name":"Virginia State Capitol","office":"government","opening_hours:signed":"no","phone":"+1 804-698-1788","roof:shape":"gabled","source":"USGS Geonames;esri_USDOT_Virgina","website":"https://virginiacapitol.gov/","wikidata":"Q2537798","id":"way/45088494","maki_temaki":"temaki/capitol"},"geometry":{"type":"Point","coordinates":[-77.4335578,37.5388155]}},{"type":"Feature","id":"way/229623396","properties":{"addr:city":"Richmond City","addr:housenumber":"800","addr:postcode":"23220","addr:state":"VA","addr:street":"South Cathedral Place","amenity":"place_of_worship","attribution":"NRHP","building":"cathedral","denomination":"catholic","heritage:operator":"nrhp","name":"Cathedral of the Sacred Heart","phone":"+1 804-359-5651","religion":"christian","source":"esri_USDOT_Virgina","website":"https://richmondcathedral.org/","wikidata":"Q5052468","year_of_construction":"1906","id":"way/229623396","maki_temaki":"maki/place-of-worship"},"geometry":{"type":"Point","coordinates":[-77.4522417,37.5475077]}},{"type":"Feature","id":"way/527243391","properties":{"access":"private","addr:city":"Richmond","addr:housenumber":"1300","addr:postcode":"23221","addr:state":"VA","addr:street":"Blanton Avenue","building":"bell_tower","height":"240'","historic":"monument","man_made":"tower","name":"Virginia War Memorial Carillon","tower:type":"bell_tower","website":"https://www.dhr.virginia.gov/historic-registers/127-0387/","wikidata":"Q127740146","wikimedia_commons":"Category:Virginia War Memorial Carillon","id":"way/527243391","maki_temaki":"maki/monument"},"geometry":{"type":"Point","coordinates":[-77.483467,37.5408567]}}]}